{
  "type": "FeatureCollection",
  "features": [
    {
      "type": "Feature",
      "properties": {
        "norad_id": 15362,
        "name": "NOVA 3",
        "group": "nnss",
        "lat": -5.014001328929757,
        "lon": 80.46342219655112,
        "alt_km": 1153.2157280878855,
        "timestamp": "2025-12-05T18:53:13.550589+00:00",
        "meta_object_name": "NOVA 3",
        "meta_object_id": "1984-110A",
        "meta_epoch": "2025-12-05T06:17:32.923104",
        "meta_mean_motion": 13.23043183,
        "meta_eccentricity": 0.00311072,
        "meta_inclination": 90.1224,
        "meta_ra_of_asc_node": 80.4465,
        "meta_arg_of_pericenter": 352.9465,
        "meta_mean_anomaly": 24.0948,
        "meta_ephemeris_type": 0,
        "meta_classification_type": "U",
        "meta_norad_cat_id": 15362,
        "meta_element_set_no": 999,
        "meta_rev_at_epoch": 98600,
        "meta_bstar": 0.00019122102,
        "meta_mean_motion_dot": 8.9e-07,
        "meta_mean_motion_ddot": 0,
        "tle_line1": "1 15362U 84110A   25339.26218661  .00000089  00000+0  19122-3 0  9999",
        "tle_line2": "2 15362  90.1224  80.4465 0031107 352.9465  24.0948 13.23043183986008"
      },
      "geometry": {
        "type": "Point",
        "coordinates": [
          80.46342219655112,
          -5.014001328929757
        ]
      }
    },
    {
      "type": "Feature",
      "properties": {
        "norad_id": 15935,
        "name": "OSCAR 30",
        "group": "nnss",
        "lat": 69.65231228624397,
        "lon": -79.82188209336319,
        "alt_km": 991.1124815157518,
        "timestamp": "2025-12-05T18:53:13.550599+00:00",
        "meta_object_name": "OSCAR 30",
        "meta_object_id": "1985-066A",
        "meta_epoch": "2025-12-05T07:49:41.794752",
        "meta_mean_motion": 13.36076356,
        "meta_eccentricity": 0.01693593,
        "meta_inclination": 90.1648,
        "meta_ra_of_asc_node": 99.726,
        "meta_arg_of_pericenter": 104.5941,
        "meta_mean_anomaly": 310.4687,
        "meta_ephemeris_type": 0,
        "meta_classification_type": "U",
        "meta_norad_cat_id": 15935,
        "meta_element_set_no": 999,
        "meta_rev_at_epoch": 96354,
        "meta_bstar": 0.00022120398,
        "meta_mean_motion_dot": 1.33e-06,
        "meta_mean_motion_ddot": 0,
        "tle_line1": "1 15935U 85066A   25339.32617818  .00000133  00000+0  22120-3 0  9992",
        "tle_line2": "2 15935  90.1648  99.7260 0169359 104.5941 310.4687 13.36076356963549"
      },
      "geometry": {
        "type": "Point",
        "coordinates": [
          -79.82188209336319,
          69.65231228624397
        ]
      }
    },
    {
      "type": "Feature",
      "properties": {
        "norad_id": 15936,
        "name": "OSCAR 24",
        "group": "nnss",
        "lat": -11.018069255560318,
        "lon": -87.85243414727509,
        "alt_km": 1106.9751743887082,
        "timestamp": "2025-12-05T18:53:13.550609+00:00",
        "meta_object_name": "OSCAR 24",
        "meta_object_id": "1985-066B",
        "meta_epoch": "2025-12-05T07:25:51.932640",
        "meta_mean_motion": 13.35934099,
        "meta_eccentricity": 0.01703737,
        "meta_inclination": 90.1788,
        "meta_ra_of_asc_node": 92.174,
        "meta_arg_of_pericenter": 111.0792,
        "meta_mean_anomaly": 303.576,
        "meta_ephemeris_type": 0,
        "meta_classification_type": "U",
        "meta_norad_cat_id": 15936,
        "meta_element_set_no": 999,
        "meta_rev_at_epoch": 96544,
        "meta_bstar": 0.00021007042,
        "meta_mean_motion_dot": 1.27e-06,
        "meta_mean_motion_ddot": 0,
        "tle_line1": "1 15936U 85066B   25339.30962885  .00000127  00000+0  21007-3 0  9994",
        "tle_line2": "2 15936  90.1788  92.1740 0170373 111.0792 303.5760 13.35934099965442"
      },
      "geometry": {
        "type": "Point",
        "coordinates": [
          -87.85243414727509,
          -11.018069255560318
        ]
      }
    },
    {
      "type": "Feature",
      "properties": {
        "norad_id": 17070,
        "name": "POLAR BEAR",
        "group": "nnss",
        "lat": 57.75479046276008,
        "lon": 3.445655392419413,
        "alt_km": 946.8708966817649,
        "timestamp": "2025-12-05T18:53:13.550621+00:00",
        "meta_object_name": "POLAR BEAR",
        "meta_object_id": "1986-088A",
        "meta_epoch": "2025-12-05T03:07:21.352800",
        "meta_mean_motion": 13.7524847,
        "meta_eccentricity": 0.00404408,
        "meta_inclination": 89.618,
        "meta_ra_of_asc_node": 184.078,
        "meta_arg_of_pericenter": 141.3841,
        "meta_mean_anomaly": 330.9052,
        "meta_ephemeris_type": 0,
        "meta_classification_type": "U",
        "meta_norad_cat_id": 17070,
        "meta_element_set_no": 999,
        "meta_rev_at_epoch": 95874,
        "meta_bstar": 0.00017104672,
        "meta_mean_motion_dot": 1.76e-06,
        "meta_mean_motion_ddot": 0,
        "tle_line1": "1 17070U 86088A   25339.13010825  .00000176  00000+0  17105-3 0  9997",
        "tle_line2": "2 17070  89.6180 184.0780 0040440 141.3841 330.9052 13.75248470958747"
      },
      "geometry": {
        "type": "Point",
        "coordinates": [
          3.445655392419413,
          57.75479046276008
        ]
      }
    },
    {
      "type": "Feature",
      "properties": {
        "norad_id": 18361,
        "name": "OSCAR 27",
        "group": "nnss",
        "lat": 58.27945540352785,
        "lon": 78.40637573576717,
        "alt_km": 1161.6988869252373,
        "timestamp": "2025-12-05T18:53:13.550631+00:00",
        "meta_object_name": "OSCAR 27",
        "meta_object_id": "1987-080A",
        "meta_epoch": "2025-12-05T07:52:48.633024",
        "meta_mean_motion": 13.44904212,
        "meta_eccentricity": 0.01024879,
        "meta_inclination": 90.3742,
        "meta_ra_of_asc_node": 78.995,
        "meta_arg_of_pericenter": 245.328,
        "meta_mean_anomaly": 113.7169,
        "meta_ephemeris_type": 0,
        "meta_classification_type": "U",
        "meta_norad_cat_id": 18361,
        "meta_element_set_no": 999,
        "meta_rev_at_epoch": 87457,
        "meta_bstar": 0.00025897148,
        "meta_mean_motion_dot": 1.64e-06,
        "meta_mean_motion_ddot": 0,
        "tle_line1": "1 18361U 87080A   25339.32834066  .00000164  00000+0  25897-3 0  9990",
        "tle_line2": "2 18361  90.3742  78.9950 0102487 245.3280 113.7169 13.44904212874579"
      },
      "geometry": {
        "type": "Point",
        "coordinates": [
          78.40637573576717,
          58.27945540352785
        ]
      }
    },
    {
      "type": "Feature",
      "properties": {
        "norad_id": 18362,
        "name": "OSCAR 29",
        "group": "nnss",
        "lat": 81.9570598482724,
        "lon": 76.81065851910331,
        "alt_km": 1162.5768310079502,
        "timestamp": "2025-12-05T18:53:13.550641+00:00",
        "meta_object_name": "OSCAR 29",
        "meta_object_id": "1987-080B",
        "meta_epoch": "2025-12-05T08:04:21.814176",
        "meta_mean_motion": 13.44446218,
        "meta_eccentricity": 0.01037437,
        "meta_inclination": 90.3755,
        "meta_ra_of_asc_node": 79.4537,
        "meta_arg_of_pericenter": 268.7145,
        "meta_mean_anomaly": 153.5408,
        "meta_ephemeris_type": 0,
        "meta_classification_type": "U",
        "meta_norad_cat_id": 18362,
        "meta_element_set_no": 999,
        "meta_rev_at_epoch": 87410,
        "meta_bstar": 0.00022435132,
        "meta_mean_motion_dot": 1.42e-06,
        "meta_mean_motion_ddot": 0,
        "tle_line1": "1 18362U 87080B   25339.33636359  .00000142  00000+0  22435-3 0  9998",
        "tle_line2": "2 18362  90.3755  79.4537 0103743 268.7145 153.5408 13.44446218874100"
      },
      "geometry": {
        "type": "Point",
        "coordinates": [
          76.81065851910331,
          81.9570598482724
        ]
      }
    },
    {
      "type": "Feature",
      "properties": {
        "norad_id": 19070,
        "name": "OSCAR 23",
        "group": "nnss",
        "lat": -84.20917715665068,
        "lon": 19.356719146996944,
        "alt_km": 1126.875756893336,
        "timestamp": "2025-12-05T18:53:13.550651+00:00",
        "meta_object_name": "OSCAR 23",
        "meta_object_id": "1988-033A",
        "meta_epoch": "2025-12-05T03:21:21.689568",
        "meta_mean_motion": 13.27785384,
        "meta_eccentricity": 0.01888934,
        "meta_inclination": 90.3221,
        "meta_ra_of_asc_node": 16.1569,
        "meta_arg_of_pericenter": 201.0835,
        "meta_mean_anomaly": 221.1239,
        "meta_ephemeris_type": 0,
        "meta_classification_type": "U",
        "meta_norad_cat_id": 19070,
        "meta_element_set_no": 999,
        "meta_rev_at_epoch": 82152,
        "meta_bstar": 0.00022833755,
        "meta_mean_motion_dot": 1.21e-06,
        "meta_mean_motion_ddot": 0,
        "tle_line1": "1 19070U 88033A   25339.13983437  .00000121  00000+0  22834-3 0  9994",
        "tle_line2": "2 19070  90.3221  16.1569 0188893 201.0835 221.1239 13.27785384821526"
      },
      "geometry": {
        "type": "Point",
        "coordinates": [
          19.356719146996944,
          -84.20917715665068
        ]
      }
    }
  ]
}